{
  "type": "FeatureCollection",
  "features": [
    {
      "type": "Feature",
      "properties": {
        "norad_id": 30342,
        "name": "FENGYUN 1C DEB",
        "group": "fengyun-1c-debris",
        "lat": -7.341584505611587,
        "lon": 163.49900650427094,
        "alt_km": 1060.694716459776,
        "timestamp": "2025-12-08T23:34:04.245136+00:00",
        "meta_object_name": "FENGYUN 1C DEB",
        "meta_object_id": "1999-025ABD",
        "meta_epoch": "2025-12-08T11:41:50.034624",
        "meta_mean_motion": 13.80034712,
        "meta_eccentricity": 0.01682334,
        "meta_inclination": 100.1956,
        "meta_ra_of_asc_node": 161.6378,
        "meta_arg_of_pericenter": 133.5409,
        "meta_mean_anomaly": 284.3651,
        "meta_ephemeris_type": 0,
        "meta_classification_type": "U",
        "meta_norad_cat_id": 30342,
        "meta_element_set_no": 999,
        "meta_rev_at_epoch": 94830,
        "meta_bstar": 0.0011367849,
        "meta_mean_motion_dot": 1.264e-05,
        "meta_mean_motion_ddot": 0,
        "tle_line1": "1 30342U 99025ABD 25342.48738466  .00001264  00000+0  11368-2 0  9992",
        "tle_line2": "2 30342 100.1956 161.6378 0168233 133.5409 284.3651 13.80034712948308"
      },
      "geometry": {
        "type": "Point",
        "coordinates": [
          163.49900650427094,
          -7.341584505611587
        ]
      }
    },
    {
      "type": "Feature",
      "properties": {
        "norad_id": 30344,
        "name": "FENGYUN 1C DEB",
        "group": "fengyun-1c-debris",
        "lat": -13.540750290802869,
        "lon": -117.28826265005337,
        "alt_km": 722.1374665254161,
        "timestamp": "2025-12-08T23:34:04.245147+00:00",
        "meta_object_name": "FENGYUN 1C DEB",
        "meta_object_id": "1999-025ABF",
        "meta_epoch": "2025-12-08T04:37:05.848320",
        "meta_mean_motion": 14.51616836,
        "meta_eccentricity": 0.00081158,
        "meta_inclination": 98.8198,
        "meta_ra_of_asc_node": 64.0265,
        "meta_arg_of_pericenter": 133.9206,
        "meta_mean_anomaly": 255.8181,
        "meta_ephemeris_type": 0,
        "meta_classification_type": "U",
        "meta_norad_cat_id": 30344,
        "meta_element_set_no": 999,
        "meta_rev_at_epoch": 98011,
        "meta_bstar": 0.0032291036,
        "meta_mean_motion_dot": 0.00012919,
        "meta_mean_motion_ddot": 0,
        "tle_line1": "1 30344U 99025ABF 25342.19242880  .00012919  00000+0  32291-2 0  9999",
        "tle_line2": "2 30344  98.8198  64.0265 0008115 133.9206 255.8181 14.51616836980111"
      },
      "geometry": {
        "type": "Point",
        "coordinates": [
          -117.28826265005337,
          -13.540750290802869
        ]
      }
    },
    {
      "type": "Feature",
      "properties": {
        "norad_id": 30345,
        "name": "FENGYUN 1C DEB",
        "group": "fengyun-1c-debris",
        "lat": 15.366281192523669,
        "lon": 39.71262574717019,
        "alt_km": 760.5173020229731,
        "timestamp": "2025-12-08T23:34:04.245157+00:00",
        "meta_object_name": "FENGYUN 1C DEB",
        "meta_object_id": "1999-025ABG",
        "meta_epoch": "2025-12-08T03:30:22.353120",
        "meta_mean_motion": 14.41568466,
        "meta_eccentricity": 0.00169112,
        "meta_inclination": 98.9204,
        "meta_ra_of_asc_node": 41.314,
        "meta_arg_of_pericenter": 255.4322,
        "meta_mean_anomaly": 104.499,
        "meta_ephemeris_type": 0,
        "meta_classification_type": "U",
        "meta_norad_cat_id": 30345,
        "meta_element_set_no": 999,
        "meta_rev_at_epoch": 97707,
        "meta_bstar": 0.0025841829,
        "meta_mean_motion_dot": 8.379e-05,
        "meta_mean_motion_ddot": 0,
        "tle_line1": "1 30345U 99025ABG 25342.14609205  .00008379  00000+0  25842-2 0  9992",
        "tle_line2": "2 30345  98.9204  41.3140 0016911 255.4322 104.4990 14.41568466977075"
      },
      "geometry": {
        "type": "Point",
        "coordinates": [
          39.71262574717019,
          15.366281192523669
        ]
      }
    },
    {
      "type": "Feature",
      "properties": {
        "norad_id": 30346,
        "name": "FENGYUN 1C DEB",
        "group": "fengyun-1c-debris",
        "lat": -12.658540365035783,
        "lon": -102.37806538534203,
        "alt_km": 820.0808432929789,
        "timestamp": "2025-12-08T23:34:04.245168+00:00",
        "meta_object_name": "FENGYUN 1C DEB",
        "meta_object_id": "1999-025ABH",
        "meta_epoch": "2025-12-08T06:10:37.619040",
        "meta_mean_motion": 14.33820234,
        "meta_eccentricity": 0.00556193,
        "meta_inclination": 98.8088,
        "meta_ra_of_asc_node": 78.8802,
        "meta_arg_of_pericenter": 37.5027,
        "meta_mean_anomaly": 16.7845,
        "meta_ephemeris_type": 0,
        "meta_classification_type": "U",
        "meta_norad_cat_id": 30346,
        "meta_element_set_no": 999,
        "meta_rev_at_epoch": 97349,
        "meta_bstar": 0.0023599033,
        "meta_mean_motion_dot": 6.64e-05,
        "meta_mean_motion_ddot": 0,
        "tle_line1": "1 30346U 99025ABH 25342.25737985  .00006640  00000+0  23599-2 0  9998",
        "tle_line2": "2 30346  98.8088  78.8802 0055619  37.5027  16.7845 14.33820234973495"
      },
      "geometry": {
        "type": "Point",
        "coordinates": [
          -102.37806538534203,
          -12.658540365035783
        ]
      }
    },
    {
      "type": "Feature",
      "properties": {
        "norad_id": 30347,
        "name": "FENGYUN 1C DEB",
        "group": "fengyun-1c-debris",
        "lat": 58.395787650359416,
        "lon": 153.35785597842997,
        "alt_km": 807.057071403593,
        "timestamp": "2025-12-08T23:34:04.245178+00:00",
        "meta_object_name": "FENGYUN 1C DEB",
        "meta_object_id": "1999-025ABJ",
        "meta_epoch": "2025-12-08T11:28:26.308128",
        "meta_mean_motion": 13.92766393,
        "meta_eccentricity": 0.01507579,
        "meta_inclination": 98.3768,
        "meta_ra_of_asc_node": 166.7567,
        "meta_arg_of_pericenter": 45.5297,
        "meta_mean_anomaly": 8.2991,
        "meta_ephemeris_type": 0,
        "meta_classification_type": "U",
        "meta_norad_cat_id": 30347,
        "meta_element_set_no": 999,
        "meta_rev_at_epoch": 95901,
        "meta_bstar": 0.00025966337,
        "meta_mean_motion_dot": 3.32e-06,
        "meta_mean_motion_ddot": 0,
        "tle_line1": "1 30347U 99025ABJ 25342.47808227  .00000332  00000+0  25966-3 0  9994",
        "tle_line2": "2 30347  98.3768 166.7567 0150757  45.5297   8.2991 13.92766393959017"
      },
      "geometry": {
        "type": "Point",
        "coordinates": [
          153.35785597842997,
          58.395787650359416
        ]
      }
    },
    {
      "type": "Feature",
      "properties": {
        "norad_id": 30348,
        "name": "FENGYUN 1C DEB",
        "group": "fengyun-1c-debris",
        "lat": 68.74572696546352,
        "lon": -78.71097546983268,
        "alt_km": 766.0493668085501,
        "timestamp": "2025-12-08T23:34:04.245188+00:00",
        "meta_object_name": "FENGYUN 1C DEB",
        "meta_object_id": "1999-025ABK",
        "meta_epoch": "2025-12-07T19:11:45.267936",
        "meta_mean_motion": 14.35019852,
        "meta_eccentricity": 0.00173778,
        "meta_inclination": 98.8633,
        "meta_ra_of_asc_node": 76.4247,
        "meta_arg_of_pericenter": 32.7534,
        "meta_mean_anomaly": 92.6893,
        "meta_ephemeris_type": 0,
        "meta_classification_type": "U",
        "meta_norad_cat_id": 30348,
        "meta_element_set_no": 999,
        "meta_rev_at_epoch": 97463,
        "meta_bstar": 0.003427102,
        "meta_mean_motion_dot": 9.747e-05,
        "meta_mean_motion_ddot": 0,
        "tle_line1": "1 30348U 99025ABK 25341.79982949  .00009747  00000+0  34271-2 0  9990",
        "tle_line2": "2 30348  98.8633  76.4247 0017377  32.7534  92.6893 14.35019852974630"
      },
      "geometry": {
        "type": "Point",
        "coordinates": [
          -78.71097546983268,
          68.74572696546352
        ]
      }
    },
    {
      "type": "Feature",
      "properties": {
        "norad_id": 30349,
        "name": "FENGYUN 1C DEB",
        "group": "fengyun-1c-debris",
        "lat": 50.082038308802055,
        "lon": -64.81104986033932,
        "alt_km": 793.9224121999323,
        "timestamp": "2025-12-08T23:34:04.245199+00:00",
        "meta_object_name": "FENGYUN 1C DEB",
        "meta_object_id": "1999-025ABL",
        "meta_epoch": "2025-12-08T11:58:17.971104",
        "meta_mean_motion": 14.11052899,
        "meta_eccentricity": 0.00895105,
        "meta_inclination": 98.585,
        "meta_ra_of_asc_node": 305.1291,
        "meta_arg_of_pericenter": 24.1226,
        "meta_mean_anomaly": 93.2761,
        "meta_ephemeris_type": 0,
        "meta_classification_type": "U",
        "meta_norad_cat_id": 30349,
        "meta_element_set_no": 999,
        "meta_rev_at_epoch": 96171,
        "meta_bstar": 0.0033142912,
        "meta_mean_motion_dot": 6.152e-05,
        "meta_mean_motion_ddot": 0,
        "tle_line1": "1 30349U 99025ABL 25342.49881911  .00006152  00000+0  33143-2 0  9990",
        "tle_line2": "2 30349  98.5850 305.1291 0089510  24.1226  93.2761 14.11052899961719"
      },
      "geometry": {
        "type": "Point",
        "coordinates": [
          -64.81104986033932,
          50.082038308802055
        ]
      }
    }
  ]
}